MTUSI-1
1 61750U 24199R   25085.14487220  .00037034  00000-0  12511-2 0  9991
2 61750  97.3676 314.2666 0014508 101.3408 258.9464 15.30464633 68548
VLADIVOSTOK-1
1 61751U 24199S   25085.17868524  .00019815  00000-0  73050-3 0  9998
2 61751  97.3683 314.0761 0013784 100.5307 259.7486 15.27750289 68549
SITRO-AIS-14
1 61752U 24199T   25085.13832043  .00007654  00000-0  71553-3 0  9996
2 61752  97.3700 307.3037 0007723 131.6899 228.4984 14.94360427 68133
HORS-3 (RS81S)
1 61753U 24199U   25085.18209748  .00037111  00000-0  12456-2 0  9999
2 61753  97.3672 314.3647 0012977  98.4854 261.7858 15.30695282 68552
HORS-4 (RS82S)
1 61754U 24199V   25085.15301619  .00038131  00000-0  12569-2 0  9995
2 61754  97.3670 314.3991 0013175  99.1029 261.1704 15.31270444 68550
SITRO-AIS-43
1 61755U 24199W   25084.90722237  .00034733  00000-0  11160-2 0  9991
2 61755  97.3673 314.2733 0011995  98.5768 261.6833 15.32127991 68522
SITRO-AIS-42
1 61756U 24199X   25084.90565180  .00036718  00000-0  11783-2 0  9990
2 61756  97.3674 314.2759 0011993  98.8891 261.3709 15.32156280 68522
HORIZON (RS59S)
1 61757U 24199Y   25085.13895193  .00046041  00000-0  14293-2 0  9996
2 61757  97.3694 314.6173 0013781  90.2245 270.0576 15.33141083 68564
SITRO-AIS-20
1 61758U 24199Z   25085.19108457  .00008021  00000-0  74584-3 0  9999
2 61758  97.3702 307.3804 0007417 132.4555 227.7295 14.94563454 68144
SITRO-AIS-19
1 61759U 24199AA  25085.18912739  .00007953  00000-0  73962-3 0  9997
2 61759  97.3703 307.3837 0007343 133.4388 226.7445 14.94559342 68142
SITRO-AIS-41
1 61760U 24199AB  25085.17568923  .00041679  00000-0  13450-2 0  9998
2 61760  97.3676 314.5273 0011927  98.5859 261.6735 15.31949101 68568
2024-199AC
1 61761U 24199AC  25085.20060666  .00035336  00000-0  11665-2 0  9993
2 61761  97.3670 314.4905 0011877  99.4567 260.8017 15.31255736 68562
ARCTICSAT-1 (RS74S)
1 61762U 24199AD  25085.18691632  .00047873  00000-0  14837-2 0  9997
2 61762  97.3693 314.7026 0013650  88.4111 271.8695 15.33186479 68573
SIT-HSE
1 61763U 24199AE  25085.16447804  .00040064  00000-0  12870-2 0  9996
2 61763  97.3674 314.5403 0011744  98.6357 261.6216 15.32106786 68564
SIT-2086
1 61764U 24199AF  25085.15747478  .00039341  00000-0  12630-2 0  9996
2 61764  97.3674 314.5497 0011528  99.1196 261.1351 15.32132575 65405
MORDOVIA-IOT (RS50S)
1 61765U 24199AG  25084.89343800  .00056283  00000-0  16194-2 0  9991
2 61765  97.3685 314.6356 0013184  87.7747 272.5006 15.35501699 65399
RUZAEVKA-390 (RS44S)
1 61766U 24199AH  25084.91980277  .00054583  00000-0  16081-2 0  9996
2 61766  97.3685 314.5967 0013128  87.3398 272.9348 15.34765652 65396
2024-199AJ (? AHMAT-2)
1 61767U 24199AJ  25084.90817808  .00061227  00000-0  17055-2 0  9990
2 61767  97.3675 314.7478 0012653  85.8354 274.4336 15.36498721 65400
HOD-HOD
1 61768U 24199AK  25085.19513494  .00028667  00000-0  96124-3 0  9993
2 61768  97.3678 314.5127 0010153 103.3969 256.8405 15.30813393 65416
KOSAR
1 61769U 24199AL  25085.16797852  .00033645  00000-0  11089-2 0  9991
2 61769  97.3675 314.5404 0009974 103.1513 257.0842 15.31338239 65414
SITRO-AIS-48
1 61771U 24199AN  25085.17176727  .00037517  00000-0  12774-2 0  9991
2 61771  97.3650 314.1806 0015254 108.6793 251.6105 15.30196274 65399
HYPERVIEW-1G (RS66S)
1 61772U 24199AP  25085.18929045  .00043690  00000-0  14307-2 0  9995
2 61772  97.3668 314.3506 0016462 102.0878 258.2209 15.31403198 65409
SITRO-AIS-47
1 61773U 24199AQ  25085.17045061  .00038092  00000-0  12928-2 0  9999
2 61773  97.3651 314.1850 0015301 109.0083 251.2817 15.30297365 65390
SITRO-AIS-46
1 61774U 24199AR  25085.16305339  .00039203  00000-0  13208-2 0  9993
2 61774  97.3647 314.1909 0015412 108.7229 251.5686 15.30526048 65392
CSTP-2.2
1 61775U 24199AS  25085.21595116  .00024799  00000-0  89590-3 0  9996
2 61775  97.3685 314.0290 0020131 103.1567 257.1920 15.28265843 65387
SITRO-AIS-40
1 61776U 24199AT  25085.16545622  .00038479  00000-0  12969-2 0  9993
2 61776  97.3649 314.1903 0015483 109.1177 251.1742 15.30516805 68544
CSTP-2.1
1 61777U 24199AU  25085.21562387  .00022962  00000-0  82834-3 0  9996
2 61777  97.3682 314.0269 0020350 104.1233 256.2269 15.28324471 65385
SITRO-AIS-39
1 61778U 24199AV  25085.18607189  .00038413  00000-0  13120-2 0  9992
2 61778  97.3649 314.1632 0015617 109.7613 250.5314 15.30084259 65396
ALTAIR (RS65S)
1 61779U 24199AW  25085.17320510  .00020332  00000-0  76107-3 0  9998
2 61779  97.3685 313.9381 0017806 103.6048 256.7175 15.27179965 68528
SITRO-AIS-37
1 61780U 24199AX  25085.18594342  .00038153  00000-0  12996-2 0  9992
2 61780  97.3657 314.1789 0015853 109.6432 250.6521 15.30170190 65392
ASRTU-1 (RS64S/BJ2CR)
1 61781U 24199AY  25085.19154606  .00017229  00000-0  65132-3 0  9991
2 61781  97.3677 313.9073 0018011 103.8291 256.4953 15.26884632 65375
TUSUR GO (RS78S)
1 61782U 24199AZ  25085.20659637  .00050378  00000-0  16286-2 0  9995
2 61782  97.3665 314.3290 0017243 101.6266 258.6912 15.31769178 65409
ZIMSAT-2 (Z2AS)
1 61783U 24199BA  25085.17536549  .00068717  00000-0  20613-2 0  9993
2 61783  97.3660 314.5130 0017213 101.0995 259.2184 15.34067966 68567
SAMSAT-IONOSPHERE (RS75S)
1 61784U 24199BB  25085.19621730  .00036290  00000-0  12405-2 0  9994
2 61784  97.3674 314.1974 0017646 102.5671 257.7544 15.30037455 68549
RTU MIREA-1 (RS51S)
1 61785U 24199BC  25085.18610187  .00039255  00000-0  13306-2 0  9993
2 61785  97.3674 314.2104 0017432 102.0065 258.3131 15.30296648 65391
SITRO-AIS-38
1 61786U 24199BD  25084.47214283  .00032001  00000-0  10969-2 0  9996
2 61786  97.3653 313.4490 0015856 112.7592 247.5326 15.30004943 65288
2024-199BE (? SWSU-60)
1 61787U 24199BE  25085.19651646  .00018896  00000-0  71478-3 0  9994
2 61787  97.3684 313.9036 0018232 103.6560 256.6710 15.26840433 68524
SITRO-AIS-45
1 61788U 24199BF  25085.18076962  .00038020  00000-0  12968-2 0  9995
2 61788  97.3644 314.1613 0015566 109.3989 250.8936 15.30131493 65370
SITRO-AIS-17
1 61789U 24199BG  25085.18673667  .00007807  00000-0  72557-3 0  9991
2 61789  97.3708 307.3941 0007482 136.6606 223.5204 14.94587805 65047
SITRO-AIS-18
1 61790U 24199BH  25085.18847632  .00008073  00000-0  75070-3 0  9997
2 61790  97.3703 307.3855 0007350 134.8709 225.3110 14.94560465 65045
LIGNOSAT
1 62296U 98067XC  25084.75172431  .01146144  67833-3  21854-2 0  9997
2 62296  51.6205 347.4126 0004275 207.5055 152.5729 16.00113412 16675
YOMOGI
1 62298U 98067XE  25084.96976820  .01447595  12713-2  21675-2 0  9997
2 62298  51.6166 345.8503 0005308 216.4755 143.5895 16.04352442 16719
POEM-4
1 62461U 24253C   25084.83309700  .00827718  37853-3  97815-3 0  9999
2 62461  55.2094 206.6978 0003294 325.3646 141.6903 16.08068309 13471
PLEIADES-ORPHEUS
1 98724C 24248D   24356.55167141  .00080857  00000+0  38463-2 0    06
2 98724  44.9996   0.5278 0003834  18.1359 115.7653 15.18415623    15
CROCUBE
1 98799U          24356.55243530  .00075084  00000+0  37160-2 0    04
2 98799  45.0011   0.5205 0005283 101.7631  36.3233 15.17035563    11
LASARSAT
1 98797U          24356.55243530  .00075084  00000+0  37160-2 0    02
2 98797  45.0011   0.5205 0005283 101.7631  36.3233 15.17035563    19
